#dP2021  1 27  0  0  0.00000000      96 __u+U ITR00 FIT  IAC
## 2142 259200.00000000   900.00000000 59241 0.0000000000000
+  115   C06C07C08C09C10C11C12C13C14C16C19C20C21C22C23C24C25
+        C26C27C28C29C30C32C33C34C35C36C37C38C39C40C43C44C45
+        C46E01E02E03E04E05E07E08E09E11E12E13E14E15E18E19E21
+        E24E25E26E27E30E31E33E36G01G02G03G04G05G06G07G08G09
+        G10G11G12G13G14G15G16G17G18G19G20G21G22G23G24G25G26
+        G27G28G29G30G31G32J01J02J03R01R02R03R04R05R07R08R09
+        R11R12R13R14R15R16R17R18R19R20R21R22R24  0  0  0  0
++         7  9  6  7  8  5  7  6  6  8  8  7  8  8  6  9  7
++         7  6  7  8  7  7  7  8  8  8  6  9  9  7  7  9  7
++         7  7  7  6  6  6  7  7  6  7  8  5  6  7  7  8  7
++         7  5  7  7  7  6  7  6  7  6  6  5  8  5  6  6  6
++         8  7  6  7  7  7  8  7  6  6  7  7  6  8  7  7  7
++         8  6  8  6  7  7 12  9  7  6  7  7  8  7  7  7  8
++         6  5  9  8  6  5  6  6  7  8  6  6  7  0  0  0  0
%c M  cc GPS ccc cccc cccc cccc cccc ccccc ccccc ccccc ccccc
%c cc cc ccc ccc cccc cccc cccc cccc ccccc ccccc ccccc ccccc
%f  0.0000000  0.000000000  0.00000000000  0.000000000000000
%f  0.0000000  0.000000000  0.00000000000  0.000000000000000
%i    0    0    0    0      0      0      0      0         0
%i    0    0    0    0      0      0      0      0         0
/* INFORMATION & ANALYSIS CENTER (IAC)      ULTRA-RAPID DATA
/* S/V CLOCKS ARE ALIGNED TO GNSS TIME                      
/* G:C1WC2W R:C1PC2P E:C1XC5X C:C2IC6I J:C1CC2S             
/* PCV:IGS14_2134 OL/AL:FES2004  NONE     YN ORB:CoN CLK:CoN
*  2021 01 27  3 45  0.00000000
PC06 -18097.608554  22841.584023  30738.561000     38.660588
PC07 -17991.866692  38389.523254   2056.237805   -266.432995
PC08  -4613.453790  26953.989769 -31842.339707   -925.810078
PC09  -1125.870597  24631.408750  34456.062696    775.684622
PC10  -8511.364299  40390.271600  -9439.993937    -96.947662
PC11  11940.576603  14943.133493 -20235.031645   -914.083648
PC12  -8876.372252  13848.056240 -22503.332122    756.432143
PC13   7675.387687  35273.217802 -21444.704246    115.331580
PC14   2176.645934  19989.639957  19394.909062     -5.307335
PC16 -17363.734099  22576.128254  31109.473326   -673.462271
PC19 -10275.007242 -12561.547011 -22678.089778    705.641340
PC20   5053.774369 -23555.466919 -14049.999487   -910.848777
PC21 -18121.002591  20961.767052  -3376.449065   -810.353896
PC22 -20119.120864   6022.270905 -18388.067885   -858.070213
PC23  18104.903891   4521.442815 -20747.438286   -878.549451
PC24   3670.847639  25901.704226   9655.891063   -748.642362
PC25  16348.993217  20955.517303  -8472.164880   -911.746432
PC26  -9165.577850  15882.251449  21015.194946    957.190322
PC27  18653.038213 -10237.270552  18053.047096    473.162462
PC28  27729.582593   1579.516909   2695.088349   -116.870414
PC29 -20997.634055 -11667.870041  14197.080138    344.086125
PC30  -1371.331537 -15984.385872  22832.562127    436.665831
PC32  17985.242670 -21058.528518   3431.249522   -886.950147
PC33  10296.811480  12625.148400  22661.742986   -934.965336
PC34   2158.515416  16054.344951 -22727.821278   -753.930111
PC35 -27771.292465   -808.241080  -2403.243987   -446.666683
PC36 -15738.789352 -21550.982883   8191.643242   -768.001796
PC37  10033.914248 -14976.549283 -21295.584083   -861.422328
PC38  -4293.132022  29523.052829 -29713.531035    126.337311
PC39 -14610.911064  23844.289235  31517.734490     27.837667
PC40 -16195.467189  38397.364744  -6903.320244    125.355327
PC43  20602.961028  12047.666324 -14482.243045   -570.326120
PC44 -18440.485034  10873.662277 -17884.027993      7.401012
PC45 -18014.582900  -4494.635437  20839.934260    345.986752
PC46  -4417.181369 -26079.543135  -8958.613136    433.514590
PE01  15110.154368  10274.750738 -23285.331078  -1033.289425
PE02 -15132.538611 -10189.308644  23312.045523    193.987297
PE03 -23397.682428  -2300.802851 -17996.779887   -391.837767
PE04  26776.765533 -12523.061124   1554.105683   -697.185774
PE05  -6225.760504 -15998.057372 -24116.642539   -309.575680
PE07 -14411.249884  20228.865691  16108.773110   -492.943759
PE08 -26634.798761  12864.012737  -1276.135169   6056.029288
PE09  14192.663451 -20227.902100 -16288.395390   5785.671848
PE11   3687.584514 -16516.460005  24284.910249   6409.636328
PE12  21474.407689  -2149.840409  20275.970456   5386.516690
PE13  -3981.748756  16263.156212 -24396.836661    410.992198
PE14   9758.573090  18313.985280 -24159.810833  -1308.782431
PE15 -21388.451081   2209.386285 -20325.669516    832.308000
PE18 -17972.295015  -9050.611946  14742.485969  -1430.522118
PE19  21943.396158   4021.254633  19456.869281    188.539838
PE21   6359.296351  26554.168225 -11418.778923   -645.085540
PE24   6941.865132 -27651.726266  -8032.485279   -711.139324
PE25  -6247.977943 -26659.769627  11261.034102   -525.167342
PE26  16160.534183  20814.288391 -13468.126582   2218.639518
PE27  -6404.327999  27912.549797   7455.387462     42.669052
PE30 -15598.584980  11963.022949  22113.219373   3230.350592
PE31  15313.265656 -12877.610533 -21812.548860   -477.728966
PE33  26191.315620  13108.457463   4328.220430   -465.191828
PE36 -15709.018740 -20730.906397  14136.746914    448.820613
PG01  21324.763902  13088.540518   9161.774779    773.014503
PG02 -11048.865317 -21087.983628  12415.774911   -570.395907
PG03  14379.898574   4316.094092  21830.571644    -66.865910
PG04  23764.282694   2841.541867  11573.723433   -175.816051
PG05  -5215.306844 -21826.883510 -14217.147075    -32.064781
PG06   1766.611595 -17290.498833  20133.927978     -4.175499
PG07  18308.877619   -696.015402 -19063.010659     36.680929
PG08  18999.340198   7004.116086 -17336.122798     -8.081633
PG09  25645.825954  -6933.778210    448.236322   -316.930048
PG10 -11681.383054  22266.880237  -8016.673284    -48.153181
PG11  23160.185998  11621.932375  -5313.615532    -41.735338
PG12 -12129.936639  -9366.895296  21465.441052      7.362214
PG13  -8877.270297 -13562.235401 -21199.146144     90.361155
PG14  13632.911086 -20734.295159  -9472.694800     91.037870
PG15 -20308.061099  -5527.326894 -16759.420383   -173.576211
PG16   1664.582552  22509.912350 -13845.205425   -271.040591
PG17  16792.082141 -13969.800623  15534.954791    385.358014
PG18 -16281.307976   3608.450031 -20689.122738    343.952488
PG19   9731.791139 -14736.408210  19527.625429    -46.573733
PG20 -14796.188694  12899.044847 -17826.844229    524.976537
PG21  21151.123917  16374.818029   2186.217917     90.334270
PG22  12323.079917  13519.602598  19506.801261   -690.903991
PG23 -15319.375590  13881.866050 -16677.771878    117.384738
PG24 -21692.584349 -15093.274008   4041.682466      3.135241
PG25 -16037.138798   6357.899401  19863.028347     68.060103
PG26  -3868.927255  25991.015678  -2760.219802     35.936542
PG27   6144.287301  13765.772423 -22041.892598    -64.200129
PG28  12556.457592 -22688.977579  -5612.621448    624.155566
PG29 -26205.634707   4361.138374    919.882088   -283.473593
PG30  10221.835402 -12006.946945 -21317.173700   -375.313205
PG31   -141.494509  18833.705636  18460.559565    -96.372847
PG32 -15203.519932  15388.578954  15390.501178     16.271050
PJ01 -28653.186088  30987.703554   3194.108682   -337.949195
PJ02 -27091.324693  24871.234810  25509.298823      1.136292
PJ03 -31262.657408  17405.641492 -17690.035591     -0.289777
PR01  15895.025751 -19199.511474  -5397.356472     74.079772
PR02    217.897309 -13947.433678 -21333.744604    464.543315
PR03 -13991.229174   -721.074321 -21264.396256     29.864246
PR04 -20006.543915  12839.450174  -9215.258875     71.655398
PR05 -14918.627660  19059.799821   8019.828685     65.451499
PR07  14454.498671    163.270988  21062.087222    -42.264888
PR08  20067.330486 -12785.028715   9273.446555    -57.070882
PR09   7447.949357  24261.838602  -2873.641797     20.794268
PR11   9845.125115  -5173.536498 -22947.757087 999999.999999
PR12   1877.053438 -21121.217766 -14178.287361    199.989971
PR13  -7279.364080 -24330.052024   2410.354677    -49.867048
PR14 -12165.413482 -13088.995242  18206.754944     60.301237
PR15  -9931.064138   5446.012412  22870.340935    105.709066
PR16  -1078.237465  21568.323032  13440.267016    -10.627236
PR17 -23527.599710  -9077.022578   3976.846915    394.773043
PR18 -22082.977136   -899.376202 -12665.070156     64.556752
PR19  -9840.209053   7196.547691 -22398.871689   -129.568239
PR20  10953.243349  12731.593019 -19201.969936   -432.020767
PR21  23810.820974   8673.806903  -2795.671568   -183.291313
PR22  21600.886050    440.632673  13632.739659    -94.648042
PR24 -11628.369351 -12983.904215  18652.425590     29.271714
EOF
